きぼう（ISS）
1 25544U 98067A   26231.79184849  .00010403  00000+0  19311-3 0  9999
2 25544  51.6331 345.2935 0007660  63.7133 296.4642 15.49516880581615
天宮
1 48274U 21035A   26231.90462391  .00009226  00000+0  11886-3 0  9999
2 48274  41.4692 295.2187 0001482 258.9033 101.1638 15.59088740303117
みちびき1号機後継機
1 49336U 21096A   26227.93030987 -.00000300  00000+0  00000+0 0  9993
2 49336  37.5839  78.6980 0741430 269.4413  83.2379  1.00298023 17610
みちびき2号機
1 42738U 17028A   26225.36072182 -.00000146  00000+0  00000+0 0  9998
2 42738  39.3459 242.3103 0754525 269.9885  81.7594  1.00269303  8207
みちびき3号機
1 42917U 17048A   26231.93393106 -.00000350  00000+0  00000+0 0  9998
2 42917   0.0730 218.9264 0002269 279.7035 292.8573  1.00275689 32895
みちびき4号機
1 42965U 17062A   26230.62462866 -.00000349  00000+0  00000+0 0  9990
2 42965  40.0687 342.6898 0747818 269.1705  80.4097  1.00281720 32428
みちびき6号機
1 62876U 25023A   26231.96282190 -.00000235  00000+0  00000+0 0  9991
2 62876   0.0136 275.0089 0002056 238.6106 251.7845  1.00269967  5581
ひまわり8号
1 40267U 14060A   26231.87064208 -.00000279  00000+0  00000+0 0  9996
2 40267   0.0406 299.5334 0001068 233.2403 249.5087  1.00267704 43399
ひまわり9号
1 41836U 16064A   26231.87064208 -.00000277  00000+0  00000+0 0  9993
2 41836   0.0275 242.3158 0001088 275.7112 264.3801  1.00273091 35842
だいち2号
1 39766U 14029A   26231.91695079  .00001293  00000+0  17996-3 0  9996
2 39766  97.9222 328.1697 0001533  91.0726 269.0661 14.79476012661001
だいち4号
1 60182U 24123A   26231.93629841  .00001145  00000+0  16013-3 0  9999
2 60182  97.9219 328.1956 0001541  97.5828 262.5558 14.79480086115300
いぶき
1 33492U 09002A   26231.27507023  .00000466  00000+0  90755-4 0  9997
2 33492  98.0933 341.5800 0001326 108.2020 251.9329 14.67540295940716
いぶきGW
1 64694U 25141A   26231.93981477  .00000106  00000+0  27074-4 0  9994
2 64694  98.0576 168.2218 0001425  84.9297 275.2070 14.67554205 61194
しきさい
1 43065U 17082A   26231.94203270  .00000080  00000+0  50666-4 0  9991
2 43065  98.6236 304.7314 0001297  99.3360 260.7968 14.27284825451039
しずく
1 38337U 12025A   26231.42419774  .00000337  00000+0  84783-4 0  9992
2 38337  98.2036 171.0256 0001331  89.1546  21.4608 14.57115004758242
いぶき2号
1 43672U 18084B   26230.92383990 -.00000601  00000+0 -65540-4 0  9991
2 43672  97.8837 341.6698 0001571  91.4254 268.7140 14.84225519422863
